*******************************************************************************
JPL/HORIZONS               1143 Odysseus (1930 BH)         2023-Sep-04 11:10:27
Rec #:    1143 (+COV) Soln.date: 2023-Aug-21_15:57:15   # obs: 5322 (1998-2023)
 
IAU76/J2000 helio. ecliptic osc. elements (au, days, deg., period=Julian yrs):
 
  EPOCH=  2457762.5 ! 2017-Jan-09.00 (TDB)         Residual RMS= .19283
   EC= .08939146742207678  QR= 4.780204344470181   TP= 2455961.0252322499
   OM= 221.2920273955493   W=  236.8447492116846   IN= 3.137845435832435
   A= 5.249461402406886    MA= 147.6250770237648   ADIST= 5.718718460343591
   PER= 12.02764           N= .081946791           ANGMOM= .039255151
   DAN= 5.47519            DDN= 4.96479            L= 98.09740360000001
   B= -2.6265851           MOID= 3.79811001        TP= 2012-Feb-03.5252322499
 
Asteroid physical parameters (km, seconds, rotational period in hours):
   GM= n.a.                RAD= 57.312             ROTPER= 10.114
   H= 8.37                 G= .150                 B-V= .794
                           ALBEDO= .050            STYP= D

ASTEROID comments: 
1: soln ref.= JPL#99, OCC=0
2: source=ORB
*******************************************************************************


*******************************************************************************
Ephemeris / API_USER Mon Sep  4 11:10:27 2023 Pasadena, USA      / Horizons
*******************************************************************************
Target body name: 1143 Odysseus (1930 BH)         {source: JPL#99}
Center body name: Solar System Barycenter (0)     {source: DE441}
Center-site name: BODY CENTER
*******************************************************************************
Start time      : A.D. 2023-Aug-12 00:00:00.0000 TDB
Stop  time      : A.D. 2023-Aug-13 00:00:00.0000 TDB
Step-size       : 2880 minutes
*******************************************************************************
Center geodetic : 0.0, 0.0, 0.0                   {E-lon(deg),Lat(deg),Alt(km)}
Center cylindric: 0.0, 0.0, 0.0                   {E-lon(deg),Dxy(km),Dz(km)}
Center radii    : (undefined)
Small perturbers: Yes                             {source: SB441-N16}
Output units    : KM-S
Calendar mode   : Mixed Julian/Gregorian
Output type     : GEOMETRIC cartesian states
Output format   : 2 (position and velocity)
Reference frame : Ecliptic of J2000.0
*******************************************************************************
Initial IAU76/J2000 heliocentric ecliptic osculating elements (au, days, deg.):
  EPOCH=  2457762.5 ! 2017-Jan-09.00 (TDB)         Residual RMS= .19283        
   EC= .08939146742207678  QR= 4.780204344470181   TP= 2455961.0252322499      
   OM= 221.2920273955493   W=  236.8447492116846   IN= 3.137845435832435       
  Equivalent ICRF heliocentric cartesian coordinates (au, au/d):
   X=-1.866163321378353E+00  Y=-4.957826831548675E+00  Z=-1.983431371129158E+00
  VX= 6.444214725817687E-03 VY=-2.494317944457589E-03 VZ=-7.118736210064961E-04
Asteroid physical parameters (km, seconds, rotational period in hours):        
   GM= n.a.                RAD= 57.312             ROTPER= 10.114              
   H= 8.37                 G= .150                 B-V= .794                   
                           ALBEDO= .050            STYP= D                     
*******************************************************************************
JDTDB
   X     Y     Z
   VX    VY    VZ
*******************************************************************************
$$SOE
2460168.500000000 = A.D. 2023-Aug-12 00:00:00.0000 TDB 
 X = 1.176122920309056E+08 Y = 7.039152033278952E+08 Z =-2.473796815357226E+07
 VX=-1.405740586525775E+01 VY= 1.947947262780178E+00 VZ=-5.898074370983600E-01
$$EOE
*******************************************************************************
 
TIME

  Barycentric Dynamical Time ("TDB" or T_eph) output was requested. This
continuous coordinate time is equivalent to the relativistic proper time
of a clock at rest in a reference frame co-moving with the solar system
barycenter but outside the system's gravity well. It is the independent
variable in the solar system relativistic equations of motion.

  TDB runs at a uniform rate of one SI second per second and is independent
of irregularities in Earth's rotation.
 
CALENDAR SYSTEM

  Mixed calendar mode was active such that calendar dates after AD 1582-Oct-15
(if any) are in the modern Gregorian system. Dates prior to 1582-Oct-5 (if any)
are in the Julian calendar system, which is automatically extended for dates
prior to its adoption on 45-Jan-1 BC.  The Julian calendar is useful for
matching historical dates. The Gregorian calendar more accurately corresponds
to the Earth's orbital motion and seasons. A "Gregorian-only" calendar mode is
available if such physical events are the primary interest.

REFERENCE FRAME AND COORDINATES

  Ecliptic at the standard reference epoch

    Reference epoch: J2000.0
    X-Y plane: adopted Earth orbital plane at the reference epoch
               Note: IAU76 obliquity of 84381.448 arcseconds wrt ICRF X-Y plane
    X-axis   : ICRF
    Z-axis   : perpendicular to the X-Y plane in the directional (+ or -) sense
               of Earth's north pole at the reference epoch.

  Symbol meaning:

    JDTDB    Julian Day Number, Barycentric Dynamical Time
      X      X-component of position vector (km)
      Y      Y-component of position vector (km)
      Z      Z-component of position vector (km)
      VX     X-component of velocity vector (km/sec)                           
      VY     Y-component of velocity vector (km/sec)                           
      VZ     Z-component of velocity vector (km/sec)                           

ABERRATIONS AND CORRECTIONS

 Geometric state vectors have NO corrections or aberrations applied.

Computations by ...

    Solar System Dynamics Group, Horizons On-Line Ephemeris System
    4800 Oak Grove Drive, Jet Propulsion Laboratory
    Pasadena, CA  91109   USA

    General site: https://ssd.jpl.nasa.gov/
    Mailing list: https://ssd.jpl.nasa.gov/email_list.html
    System news : https://ssd.jpl.nasa.gov/horizons/news.html
    User Guide  : https://ssd.jpl.nasa.gov/horizons/manual.html
    Connect     : browser        https://ssd.jpl.nasa.gov/horizons/app.html#/x
                  API            https://ssd-api.jpl.nasa.gov/doc/horizons.html
                  command-line   telnet ssd.jpl.nasa.gov 6775
                  e-mail/batch   https://ssd.jpl.nasa.gov/ftp/ssd/hrzn_batch.txt
                  scripts        https://ssd.jpl.nasa.gov/ftp/ssd/SCRIPTS
    Author      : Jon.D.Giorgini@jpl.nasa.gov
*******************************************************************************
